IRIDIUM 159             
1 43578U 18061K   24189.45109297  .00000079  00000+0  21039-4 0  9998
2 43578  86.3979 353.3095 0001926  89.5127 270.6290 14.34217695311653
IRIDIUM 180             
1 43922U 19002A   24189.38082122  .00000020  00000+0  24344-6 0  9996
2 43922  86.3965 290.2187 0002009  97.6460 262.4964 14.34217707287254
IRIDIUM 176             
1 43923U 19002B   24189.37224196  .00001430  00000+0  22300-3 0  9998
2 43923  86.6097 290.2426 0002155  92.0484 268.0980 14.72238920294819
IRIDIUM 168             
1 43924U 19002C   24189.37447804  .00000104  00000+0  29936-4 0  9992
2 43924  86.3968 290.2785 0002237  93.7277 266.4174 14.34217753287235
IRIDIUM 173             
1 43925U 19002D   24189.36179244  .00000227  00000+0  73943-4 0  9995
2 43925  86.3966 290.2019 0002140  94.0981 266.0459 14.34218941287213
IRIDIUM 169             
1 43926U 19002E   24189.43567877  .00000458  00000+0  14315-3 0  9990
2 43926  86.4238 321.7987 0003415 130.1310 230.0188 14.38627018288185
IRIDIUM 172             
1 43927U 19002F   24189.35545092  .00000173  00000+0  54544-4 0  9990
2 43927  86.3961 290.2106 0002340  92.8520 267.2944 14.34220332287224
IRIDIUM 175             
1 43928U 19002G   24189.57049339  .00001344  00000+0  20932-3 0  9992
2 43928  86.1502 262.1480 0002231 100.8012 259.3455 14.72232960294838
